NORAD_CAT_ID,OBJECT_NAME,OBJECT_TYPE,EPOCH,MEAN_MOTION,ECCENTRICITY,INCLINATION,RA_OF_ASC_NODE,ARG_OF_PERICENTER,MEAN_ANOMALY,BSTAR,MEAN_MOTION_DOT,MEAN_MOTION_DDOT,TLE_LINE0,TLE_LINE1,TLE_LINE2,SEMIMAJOR_AXIS,PERIOD,APOGEE,PERIGEE,DECAYED
54066.0,STARLINK-5151,PAYLOAD,2023-07-17 10:24:13,15.08838299,0.0001198,53.2189,1.7032,92.6353,267.4776,0.00014998,2.1e-05,0.0,0 STARLINK-5151,1 54066U 22136R   23198.43349130  .00002100  00000-0  14998-3 0  9992,2 54066  53.2189   1.7032 0001198  92.6353 267.4776 15.08838299 41457,6917.886,95.438,540.579,538.922,0.0
54066.0,STARLINK-5151,PAYLOAD,2023-07-17 18:21:08,15.08846995,0.0001196,53.2179,0.2159,89.2385,270.8744,0.00021916,3.202e-05,0.0,0 STARLINK-5151,1 54066U 22136R   23198.76468703  .00003202  00000-0  21916-3 0  9998,2 54066  53.2179   0.2159 0001196  89.2385 270.8744 15.08846995 41506,6917.859,95.437,540.551,538.897,0.0
54066.0,STARLINK-5151,PAYLOAD,2023-07-18 11:50:23,15.08835105,0.0001502,53.2185,356.9451,108.2604,251.8551,0.00025317,3.743e-05,0.0,0 STARLINK-5151,1 54066U 22136R   23199.49333223  .00003743  00000-0  25317-3 0  9996,2 54066  53.2185 356.9451 0001502 108.2604 251.8551 15.08835105 41614,6917.895,95.438,540.799,538.721,0.0
54066.0,STARLINK-5151,PAYLOAD,2023-07-19 16:27:20,15.08838388,0.0001139,53.219,351.5948,43.5917,316.5165,4.0682e-05,3.6e-06,0.0,0 STARLINK-5151,1 54066U 22136R   23200.68565625  .00000360  00000-0  40682-4 0  9998,2 54066  53.2190 351.5948 0001139  43.5917 316.5165 15.08838388 41791,6917.885,95.438,540.538,538.962,0.0
54066.0,STARLINK-5151,PAYLOAD,2023-07-20 13:07:21,15.08849885,0.0001267,53.2186,347.7282,85.1668,274.9469,-6.9971e-05,-1.402e-05,0.0,0 STARLINK-5151,1 54066U 22136R   23201.54677185 -.00001402  00000-0 -69971-4 0  9991,2 54066  53.2186 347.7282 0001267  85.1668 274.9469 15.08849885 41924,6917.85,95.437,540.592,538.839,0.0
54066.0,STARLINK-5151,PAYLOAD,2023-07-21 09:47:21,15.08841329,0.0001252,53.2186,343.8618,93.0976,267.016,9.836e-05,1.278e-05,0.0,0 STARLINK-5151,1 54066U 22136R   23202.40789204  .00001278  00000-0  98360-4 0  9996,2 54066  53.2186 343.8618 0001252  93.0976 267.0160 15.08841329 42059,6917.876,95.437,540.607,538.875,0.0
54066.0,STARLINK-5151,PAYLOAD,2023-07-24 09:19:43,15.08834768,0.0001072,53.2181,330.4802,96.587,263.5244,3.9946e-05,3.48e-06,0.0,0 STARLINK-5151,1 54066U 22136R   23205.38870185  .00000348  00000-0  39946-4 0  9997,2 54066  53.2181 330.4802 0001072  96.5870 263.5244 15.08834768 42022,6917.896,95.438,540.503,539.02,0.0
54066.0,STARLINK-5151,PAYLOAD,2023-07-25 12:21:17,15.08834779,0.0001684,53.2158,325.4224,101.9047,258.2134,0.00012129,1.643e-05,0.0,0 STARLINK-5151,1 54066U 22136R   23206.51478261  .00001643  00000-0  12129-3 0  9994,2 54066  53.2158 325.4224 0001684 101.9047 258.2134 15.08834779 42193,6917.896,95.438,540.926,538.596,0.0
54066.0,STARLINK-5151,PAYLOAD,2023-07-26 07:25:54,15.08840503,0.0001203,53.2186,321.8573,74.5925,285.52,0.00012094,1.637e-05,0.0,0 STARLINK-5151,1 54066U 22136R   23207.30966067  .00001637  00000-0  12094-3 0  9992,2 54066  53.2186 321.8573 0001203  74.5925 285.5200 15.08840503 42311,6917.879,95.438,540.576,538.912,0.0
54066.0,STARLINK-5151,PAYLOAD,2023-07-27 00:55:08,15.08847116,0.0001225,53.2185,318.5869,73.3987,286.714,0.00017667,2.525e-05,0.0,0 STARLINK-5151,1 54066U 22136R   23208.03829241  .00002525  00000-0  17667-3 0  9993,2 54066  53.2185 318.5869 0001225  73.3987 286.7140 15.08847116 42908,6917.859,95.437,540.571,538.876,0.0
54066.0,STARLINK-5151,PAYLOAD,2023-07-27 07:16:41,15.08841161,0.0001553,53.2178,317.3975,78.9833,281.1334,0.00011015,1.466e-05,0.0,0 STARLINK-5151,1 54066U 22136R   23208.30325931  .00001466  00000-0  11015-3 0  9994,2 54066  53.2178 317.3975 0001553  78.9833 281.1334 15.08841161 42942,6917.877,95.437,540.816,538.667,0.0
54066.0,STARLINK-5151,PAYLOAD,2023-07-28 00:45:56,15.08838565,0.0001316,53.2181,314.1254,90.8,269.3143,1.4866e-05,-5.1e-07,0.0,0 STARLINK-5151,1 54066U 22136R   23209.03190168 -.00000051  00000-0  14866-4 0  9995,2 54066  53.2181 314.1254 0001316  90.8000 269.3143 15.08838565 43050,6917.885,95.438,540.66,538.839,0.0
54066.0,STARLINK-5151,PAYLOAD,2023-07-29 10:09:02,15.08838408,0.0001179,53.2171,307.8823,81.0761,279.0365,8.6552e-05,1.09e-05,0.0,0 STARLINK-5151,1 54066U 22136R   23210.42293991  .00001090  00000-0  86552-4 0  9992,2 54066  53.2171 307.8823 0001179  81.0761 279.0365 15.08838408 43266,6917.885,95.438,540.566,538.935,0.0
54066.0,STARLINK-5151,PAYLOAD,2023-07-30 09:59:49,15.08834328,0.0001056,53.2179,303.4235,76.895,283.216,5.7805e-05,6.32e-06,0.0,0 STARLINK-5151,1 54066U 22136R   23211.41654513  .00000632  00000-0  57805-4 0  9993,2 54066  53.2179 303.4235 0001056  76.8950 283.2160 15.08834328 43413,6917.898,95.438,540.493,539.032,0.0
54066.0,STARLINK-5151,PAYLOAD,2023-07-30 16:21:21,15.08843837,0.0001147,53.2165,302.231,84.4828,275.6295,0.00010342,1.359e-05,0.0,0 STARLINK-5151,1 54066U 22136R   23211.68149878  .00001359  00000-0  10342-3 0  9996,2 54066  53.2165 302.2310 0001147  84.4828 275.6295 15.08843837 43452,6917.869,95.437,540.527,538.94,0.0
54066.0,STARLINK-5151,PAYLOAD,2023-08-01 16:02:55,15.08840812,9.38e-05,53.2158,293.3106,85.6171,274.4928,3.0197e-05,1.93e-06,0.0,0 STARLINK-5151,1 54066U 22136R   23213.66870348  .00000193  00000-0  30197-4 0  9995,2 54066  53.2158 293.3106 0000938  85.6171 274.4928 15.08840812 43751,6917.878,95.438,540.392,539.094,0.0
54066.0,STARLINK-5151,PAYLOAD,2023-08-02 06:21:24,15.08825959,9.53e-05,53.2159,290.6336,92.0945,268.0156,0.00012465,1.696e-05,0.0,0 STARLINK-5151,1 54066U 22136R   23214.26487139  .00001696  00000-0  12465-3 0  9990,2 54066  53.2159 290.6336 0000953  92.0945 268.0156 15.08825959 43842,6917.923,95.438,540.448,539.129,0.0
54066.0,STARLINK-5151,PAYLOAD,2023-08-02 12:42:56,15.08844745,9.94e-05,53.2166,289.4436,87.8954,272.2152,4.3303e-05,4.02e-06,0.0,0 STARLINK-5151,1 54066U 22136R   23214.52982225  .00000402  00000-0  43303-4 0  9995,2 54066  53.2166 289.4436 0000994  87.8954 272.2152 15.08844745 43885,6917.866,95.437,540.419,539.043,0.0
54066.0,STARLINK-5151,PAYLOAD,2023-08-04 10:49:08,15.08835147,0.0001157,53.2168,280.8208,77.6538,282.4584,-1.8226e-05,-5.78e-06,0.0,0 STARLINK-5151,1 54066U 22136R   23216.45079137 -.00000578  00000-0 -18226-4 0  9990,2 54066  53.2168 280.8208 0001157  77.6538 282.4584 15.08835147 44177,6917.895,95.438,540.561,538.96,0.0
54066.0,STARLINK-5151,PAYLOAD,2023-08-05 10:39:54,15.08846794,0.0001209,53.2168,276.3612,89.0894,271.0237,8.784e-05,1.111e-05,0.0,0 STARLINK-5151,1 54066U 22136R   23217.44438048  .00001111  00000-0  87840-4 0  9990,2 54066  53.2168 276.3612 0001209  89.0894 271.0237 15.08846794 44322,6917.86,95.437,540.561,538.888,0.0
54066.0,STARLINK-5151,PAYLOAD,2023-08-06 04:09:09,15.0883574,0.0001254,53.217,273.0898,100.3342,259.7792,9.7421e-05,1.263e-05,0.0,0 STARLINK-5151,1 54066U 22136R   23218.17302641  .00001263  00000-0  97421-4 0  9994,2 54066  53.2170 273.0898 0001254 100.3342 259.7792 15.08835740 44430,6917.893,95.438,540.626,538.891,0.0
54066.0,STARLINK-5151,PAYLOAD,2023-08-06 20:03:01,15.08830554,0.0001155,53.2169,270.1163,99.93,260.1823,1.6673e-05,-2.3e-07,0.0,0 STARLINK-5151,1 54066U 22136R   23218.83543457 -.00000023  00000-0  16673-4 0  9993,2 54066  53.2169 270.1163 0001155  99.9300 260.1823 15.08830554 44538,6917.909,95.438,540.573,538.975,0.0
54066.0,STARLINK-5151,PAYLOAD,2023-08-07 19:53:48,15.08838262,0.0001077,53.2161,265.655,97.9786,262.1328,-5.7266e-06,-3.79e-06,0.0,0 STARLINK-5151,1 54066U 22136R   23219.82903199 -.00000379  00000-0 -57266-5 0  9995,2 54066  53.2161 265.6550 0001077  97.9786 262.1328 15.08838262 44680,6917.886,95.438,540.496,539.006,0.0
54066.0,STARLINK-5151,PAYLOAD,2023-08-09 08:27:41,15.08832136,0.0001045,53.2154,258.8142,88.5498,271.5614,9.6099e-06,-1.35e-06,0.0,0 STARLINK-5151,1 54066U 22136R   23221.35255995 -.00000135  00000-0  96099-5 0  9996,2 54066  53.2154 258.8142 0001045  88.5498 271.5614 15.08832136 44916,6917.904,95.438,540.492,539.047,0.0
54066.0,STARLINK-5151,PAYLOAD,2023-08-10 09:53:50,15.08826076,0.0001092,53.2154,254.056,89.9071,270.2046,0.00025089,3.706e-05,0.0,0 STARLINK-5151,1 54066U 22136R   23222.41239542  .00003706  00000-0  25089-3 0  9999,2 54066  53.2154 254.0560 0001092  89.9071 270.2046 15.08826076 45071,6917.923,95.438,540.543,539.033,0.0
54066.0,STARLINK-5151,PAYLOAD,2023-08-10 19:26:09,15.08843459,0.0001047,53.2153,252.2715,84.3876,275.7236,1.4506e-05,-5.7e-07,0.0,0 STARLINK-5151,1 54066U 22136R   23222.80983234 -.00000057  00000-0  14506-4 0  9996,2 54066  53.2153 252.2715 0001047  84.3876 275.7236 15.08843459 45136,6917.87,95.437,540.459,539.011,0.0
54066.0,STARLINK-5151,PAYLOAD,2023-08-12 08:00:01,15.0884035,0.000112,53.2154,245.4324,83.9273,276.1847,1.1065e-05,-1.12e-06,0.0,0 STARLINK-5151,1 54066U 22136R   23224.33335386 -.00000112  00000-0  11065-4 0  9994,2 54066  53.2154 245.4324 0001120  83.9273 276.1847 15.08840350 45360,6917.879,95.438,540.519,538.97,0.0
54066.0,STARLINK-5151,PAYLOAD,2023-08-13 12:36:58,15.08840356,0.0001157,53.2157,240.0795,84.6129,275.4995,-1.393e-05,-5.1e-06,0.0,0 STARLINK-5151,1 54066U 22136R   23225.52567396 -.00000510  00000-0 -13930-4 0  9990,2 54066  53.2157 240.0795 0001157  84.6129 275.4995 15.08840356 45546,6917.879,95.438,540.545,538.944,0.0
54066.0,STARLINK-5151,PAYLOAD,2023-08-14 17:13:54,15.08836743,0.0001178,53.2162,234.7266,89.061,271.0517,-3.7121e-06,-3.47e-06,0.0,0 STARLINK-5151,1 54066U 22136R   23226.71799748 -.00000347  00000-0 -37121-5 0  9997,2 54066  53.2162 234.7266 0001178  89.0610 271.0517 15.08836743 45729,6917.89,95.438,540.57,538.94,0.0
54066.0,STARLINK-5151,PAYLOAD,2023-08-15 23:26:14,15.088345,0.0001224,53.2159,229.0761,95.0743,265.0388,1.1846e-05,-9.9e-07,0.0,0 STARLINK-5151,1 54066U 22136R   23227.97656058 -.00000099  00000-0  11846-4 0  9990,2 54066  53.2159 229.0761 0001224  95.0743 265.0388 15.08834500 45917,6917.897,95.438,540.609,538.915,0.0
